ONEWEB-0275             
1 48993U 21060AC  26154.62597676 -.00000239  00000+0 -65798-3 0  9991
2 48993  87.9107 231.4679 0001976  95.9619 264.1738 13.16592181237775
ONEWEB-0276             
1 48994U 21060AD  26154.58322166  .00000093  00000+0  20870-3 0  9995
2 48994  87.9103 231.4762 0002037  94.0246 266.1118 13.16593170237784
ONEWEB-0277             
1 48995U 21060AE  26154.59589038  .00000162  00000+0  38997-3 0  9996
2 48995  87.9103 231.4830 0001800  97.2455 262.8881 13.16593127237776
ONEWEB-0278             
1 48996U 21060AF  26154.58638576  .00000117  00000+0  27214-3 0  9998
2 48996  87.9107 231.4752 0002285 108.2390 251.8990 13.16595848237909
ONEWEB-0279             
1 48997U 21060AG  26154.59430981  .00000065  00000+0  13713-3 0  9991
2 48997  87.9107 231.4708 0001829  95.1442 264.9898 13.16593610237835
ONEWEB-0280             
1 48998U 21060AH  26154.60933346  .00000012  00000+0 -28602-5 0  9995
2 48998  87.9105 231.4718 0001927 109.8641 250.2698 13.16592565237775
ONEWEB-0281             
1 48999U 21060AJ  26154.61489477  .00000004  00000+0 -24012-4 0  9999
2 48999  87.9107 231.4659 0002095 100.1319 260.0049 13.16594148237841
ONEWEB-0282             
1 49000U 21060AK  26154.64496551 -.00000060  00000+0 -18983-3 0  9999
2 49000  87.9101 231.4683 0001896 103.0117 257.1226 13.16595527237826
ONEWEB-0283             
1 49001U 21060AL  26154.63388390 -.00000026  00000+0 -10039-3 0  9996
2 49001  87.9103 231.4705 0001916  96.3875 263.7474 13.16593070237832
ONEWEB-0284             
1 49002U 21060AM  26154.62755741 -.00000028  00000+0 -10734-3 0  9998
2 49002  87.9104 231.4650 0002092 108.9652 251.1706 13.16593477237810
ONEWEB-0285             
1 49075U 21075A   26155.02371089 -.00000065  00000+0 -21722-3 0  9998
2 49075  87.8950 353.2801 0001728  88.5445 271.5882 13.12441927233485
ONEWEB-0286             
1 49076U 21075B   26155.00578742  .00000448  00000+0  12089-2 0  9990
2 49076  87.8942 353.3021 0002000  88.8219 271.3139 13.12442268232838
ONEWEB-0287             
1 49077U 21075C   26155.02969148  .00000078  00000+0  16764-3 0  9991
2 49077  87.9143   8.4836 0002271  91.5254 268.6138 13.17647753231899
ONEWEB-0288             
1 49078U 21075D   26155.05844050  .00000075  00000+0  17332-3 0  9998
2 49078  87.8949 353.2666 0001962  99.4174 260.7176 13.12443949233465
ONEWEB-0289             
1 49079U 21075E   26155.06836721  .00000194  00000+0  46592-3 0  9998
2 49079  87.9151   8.4921 0001631  97.2968 262.8349 13.17650188232470
ONEWEB-0290             
1 49080U 21075F   26155.04150656  .00000079  00000+0  17062-3 0  9996
2 49080  87.9149   8.4689 0001483 100.9702 259.1597 13.17650193231887
ONEWEB-0291             
1 49081U 21075G   26155.02631727  .00000006  00000+0 -16637-4 0  9997
2 49081  87.9145   8.4802 0002049  98.5396 261.5967 13.17647629231878
ONEWEB-0293             
1 49082U 21075H   26155.05161990  .00000032  00000+0  49559-4 0  9998
2 49082  87.9145   8.4785 0001713  89.2473 270.8855 13.17651227231901
ONEWEB-0294             
1 49083U 21075J   26155.06522559  .00000188  00000+0  48701-3 0  9991
2 49083  87.8952 353.2686 0001655 100.5782 259.5533 13.12444101232851
ONEWEB-0295             
1 49084U 21075K   26155.05077811 -.00000319  00000+0 -85569-3 0  9998
2 49084  87.9136   8.4836 0002041  97.2284 262.9079 13.17650535231860
ONEWEB-0296             
1 49085U 21075L   26155.04488375 -.00000514  00000+0 -14634-2 0  9990
2 49085  87.8952 353.2806 0002140  87.7525 272.3848 13.12442268232852
ONEWEB-0297             
1 49086U 21075M   26154.99915164  .00000450  00000+0  12148-2 0  9990
2 49086  87.8939 353.3015 0001894  91.1937 268.9409 13.12443420233454
ONEWEB-0298             
1 49087U 21075N   26155.05516284  .00000254  00000+0  61996-3 0  9997
2 49087  87.9142   8.4796 0001956  90.6254 269.5102 13.17650371231894
ONEWEB-0299             
1 49088U 21075P   26155.05670038  .00000027  00000+0  36592-4 0  9999
2 49088  87.9154   8.4585 0001971  87.5483 272.5874 13.17650797231870
ONEWEB-0300             
1 49089U 21075Q   26155.06776473  .00000283  00000+0  75202-3 0  9995
2 49089  87.8954 353.2656 0002037  83.1466 276.9894 13.12444430233484
ONEWEB-0301             
1 49090U 21075R   26155.05166506 -.00000179  00000+0 -53186-3 0  9999
2 49090  87.8949 353.2676 0001846  78.5900 281.5436 13.12444802232846
ONEWEB-0302             
1 49091U 21075S   26155.03810720 -.00000241  00000+0 -70411-3 0  9992
2 49091  87.8942 353.2804 0001556  90.9708 269.1599 13.12443246232826
ONEWEB-0304             
1 49092U 21075T   26155.03137891  .00000044  00000+0  81033-4 0  9996
2 49092  87.9140   8.4873 0001989  87.5142 272.6217 13.17647610231840
ONEWEB-0305             
1 49093U 21075U   26155.02463031  .00000061  00000+0  12386-3 0  9997
2 49093  87.9150   8.4725 0002216  91.1589 268.9796 13.17647849231875
ONEWEB-0308             
1 49094U 21075V   26155.03133097 -.00000305  00000+0 -88401-3 0  9999
2 49094  87.8952 353.2753 0001773  87.8839 272.2492 13.12442100232830
ONEWEB-0309             
1 49095U 21075W   26155.02799563 -.00000026  00000+0 -10130-3 0  9999
2 49095  87.9144   8.4818 0001625  98.6306 261.5009 13.17648626231842
